TOMORROW-S2             
1 60485U 24149T   26068.75188364  .00008133  00000+0  27683-3 0  9990
2 60485  97.3857 150.0385 0001648 234.3331 125.7757 15.30674935 86869
STARLINK-32786          
1 62528U 25004T   26068.42956381  .00046990  00000+0  17049-2 0  9994
2 62528  43.0000 220.9248 0001643 257.5437 102.5230 15.27605327 65479
